STARLINK-37005          
1 68107U 26044G   26092.25003472 -.01850171  00000+0 -30204-1 0  9994
2 68107  97.2855  53.4822 0001493  94.2165 297.5270 15.55862528  5147
STARLINK-37017          
1 68108U 26044H   26092.25003472 -.01866840  00000+0 -28933-1 0  9991
2 68108  97.2855  53.5005 0001660  93.0090 339.1370 15.57283908  5147
STARLINK-36833          
1 68109U 26044J   26092.25003472 -.01869500  00000+0 -28500-1 0  9998
2 68109  97.2852  53.5057 0001701  91.4568 355.3255 15.57727253  5193
STARLINK-36830          
1 68110U 26044K   26092.25003472 -.01863208  00000+0 -28538-1 0  9990
2 68110  97.2853  53.5037 0001663  95.7701 345.0431 15.57590459  5195
STARLINK-36791          
1 68111U 26044L   26092.25003472 -.01866505  00000+0 -28052-1 0  9995
2 68111  97.2851  53.5116 0001741  95.0567   5.2169 15.58098227  5147
STARLINK-36893          
1 68112U 26044M   26092.25003472 -.01864167  00000+0 -27748-1 0  9999
2 68112  97.2852  53.5146 0001828  96.2060  13.7184 15.58348401  5197
STARLINK-36937          
1 68113U 26044N   26092.25003472 -.01864947  00000+0 -27425-1 0  9998
2 68113  97.2852  53.5195 0001832  97.4080  23.0864 15.58670233  5147
STARLINK-36229          
1 68114U 26044P   26092.25003472 -.01866134  00000+0 -27640-1 0  9998
2 68114  97.2852  53.5165 0001830  94.5932  21.2166 15.58482360  5199
STARLINK-36392          
1 68115U 26044Q   26092.25003472 -.01859343  00000+0 -30282-1 0  9999
2 68115  97.2853  53.5040 0001789  94.1279 350.7779 15.55940011  5195
STARLINK-36805          
1 68116U 26044R   26092.25003472 -.01879495  00000+0 -29127-1 0  9996
2 68116  97.2854  53.5147 0001761  97.9080  10.4953 15.57307950  5191
STARLINK-36844          
1 68117U 26044S   26092.25003472 -.01868495  00000+0 -26762-1 0  9997
2 68117  97.2851  53.5298 0001898 102.6036  43.4882 15.59368133  5146
STARLINK-36789          
1 68118U 26044T   26092.25003472 -.01867413  00000+0 -25904-1 0  9994
2 68118  97.2855  53.5353 0001997  99.5577  59.4653 15.60201035  5149
