CCSDS_OMM_VERS = 2.0
CREATION_DATE  = 
ORIGINATOR     = 

OBJECT_NAME    = STARLINK-37005
OBJECT_ID      = 2026-044G
CENTER_NAME    = EARTH
REF_FRAME      = TEME
TIME_SYSTEM    = UTC
MEAN_ELEMENT_THEORY = SGP/SGP4

EPOCH          = 2026-04-02T06:00:02.999808
MEAN_MOTION    = 15.55862528
ECCENTRICITY   = .00014937
INCLINATION    = 97.2855
RA_OF_ASC_NODE = 53.4822
ARG_OF_PERICENTER = 94.2165
MEAN_ANOMALY   = 297.5270

EPHEMERIS_TYPE = 0
CLASSIFICATION_TYPE = U
NORAD_CAT_ID   = 68107
ELEMENT_SET_NO = 999
REV_AT_EPOCH   = 514
BSTAR          = -.30204177E-1
MEAN_MOTION_DOT = -.1850171E-1
MEAN_MOTION_DDOT = 0

CCSDS_OMM_VERS = 2.0
CREATION_DATE  = 
ORIGINATOR     = 

OBJECT_NAME    = STARLINK-37017
OBJECT_ID      = 2026-044H
CENTER_NAME    = EARTH
REF_FRAME      = TEME
TIME_SYSTEM    = UTC
MEAN_ELEMENT_THEORY = SGP/SGP4

EPOCH          = 2026-04-02T06:00:02.999808
MEAN_MOTION    = 15.57283908
ECCENTRICITY   = .00016604
INCLINATION    = 97.2855
RA_OF_ASC_NODE = 53.5005
ARG_OF_PERICENTER = 93.0090
MEAN_ANOMALY   = 339.1370

EPHEMERIS_TYPE = 0
CLASSIFICATION_TYPE = U
NORAD_CAT_ID   = 68108
ELEMENT_SET_NO = 999
REV_AT_EPOCH   = 514
BSTAR          = -.2893273E-1
MEAN_MOTION_DOT = -.186684E-1
MEAN_MOTION_DDOT = 0

CCSDS_OMM_VERS = 2.0
CREATION_DATE  = 
ORIGINATOR     = 

OBJECT_NAME    = STARLINK-36833
OBJECT_ID      = 2026-044J
CENTER_NAME    = EARTH
REF_FRAME      = TEME
TIME_SYSTEM    = UTC
MEAN_ELEMENT_THEORY = SGP/SGP4

EPOCH          = 2026-04-02T06:00:02.999808
MEAN_MOTION    = 15.57727253
ECCENTRICITY   = .00017013
INCLINATION    = 97.2852
RA_OF_ASC_NODE = 53.5057
ARG_OF_PERICENTER = 91.4568
MEAN_ANOMALY   = 355.3255

EPHEMERIS_TYPE = 0
CLASSIFICATION_TYPE = U
NORAD_CAT_ID   = 68109
ELEMENT_SET_NO = 999
REV_AT_EPOCH   = 519
BSTAR          = -.28499671E-1
MEAN_MOTION_DOT = -.18695E-1
MEAN_MOTION_DDOT = 0

CCSDS_OMM_VERS = 2.0
CREATION_DATE  = 
ORIGINATOR     = 

OBJECT_NAME    = STARLINK-36830
OBJECT_ID      = 2026-044K
CENTER_NAME    = EARTH
REF_FRAME      = TEME
TIME_SYSTEM    = UTC
MEAN_ELEMENT_THEORY = SGP/SGP4

EPOCH          = 2026-04-02T06:00:02.999808
MEAN_MOTION    = 15.57590459
ECCENTRICITY   = .00016635
INCLINATION    = 97.2853
RA_OF_ASC_NODE = 53.5037
ARG_OF_PERICENTER = 95.7701
MEAN_ANOMALY   = 345.0431

EPHEMERIS_TYPE = 0
CLASSIFICATION_TYPE = U
NORAD_CAT_ID   = 68110
ELEMENT_SET_NO = 999
REV_AT_EPOCH   = 519
BSTAR          = -.28538494E-1
MEAN_MOTION_DOT = -.1863208E-1
MEAN_MOTION_DDOT = 0

CCSDS_OMM_VERS = 2.0
CREATION_DATE  = 
ORIGINATOR     = 

OBJECT_NAME    = STARLINK-36791
OBJECT_ID      = 2026-044L
CENTER_NAME    = EARTH
REF_FRAME      = TEME
TIME_SYSTEM    = UTC
MEAN_ELEMENT_THEORY = SGP/SGP4

EPOCH          = 2026-04-02T06:00:02.999808
MEAN_MOTION    = 15.58098227
ECCENTRICITY   = .00017412
INCLINATION    = 97.2851
RA_OF_ASC_NODE = 53.5116
ARG_OF_PERICENTER = 95.0567
MEAN_ANOMALY   = 5.2169

EPHEMERIS_TYPE = 0
CLASSIFICATION_TYPE = U
NORAD_CAT_ID   = 68111
ELEMENT_SET_NO = 999
REV_AT_EPOCH   = 514
BSTAR          = -.28052373E-1
MEAN_MOTION_DOT = -.1866505E-1
MEAN_MOTION_DDOT = 0

CCSDS_OMM_VERS = 2.0
CREATION_DATE  = 
ORIGINATOR     = 

OBJECT_NAME    = STARLINK-36893
OBJECT_ID      = 2026-044M
CENTER_NAME    = EARTH
REF_FRAME      = TEME
TIME_SYSTEM    = UTC
MEAN_ELEMENT_THEORY = SGP/SGP4

EPOCH          = 2026-04-02T06:00:02.999808
MEAN_MOTION    = 15.58348401
ECCENTRICITY   = .00018285
INCLINATION    = 97.2852
RA_OF_ASC_NODE = 53.5146
ARG_OF_PERICENTER = 96.2060
MEAN_ANOMALY   = 13.7184

EPHEMERIS_TYPE = 0
CLASSIFICATION_TYPE = U
NORAD_CAT_ID   = 68112
ELEMENT_SET_NO = 999
REV_AT_EPOCH   = 519
BSTAR          = -.27748026E-1
MEAN_MOTION_DOT = -.1864167E-1
MEAN_MOTION_DDOT = 0

CCSDS_OMM_VERS = 2.0
CREATION_DATE  = 
ORIGINATOR     = 

OBJECT_NAME    = STARLINK-36937
OBJECT_ID      = 2026-044N
CENTER_NAME    = EARTH
REF_FRAME      = TEME
TIME_SYSTEM    = UTC
MEAN_ELEMENT_THEORY = SGP/SGP4

EPOCH          = 2026-04-02T06:00:02.999808
MEAN_MOTION    = 15.58670233
ECCENTRICITY   = .00018321
INCLINATION    = 97.2852
RA_OF_ASC_NODE = 53.5195
ARG_OF_PERICENTER = 97.4080
MEAN_ANOMALY   = 23.0864

EPHEMERIS_TYPE = 0
CLASSIFICATION_TYPE = U
NORAD_CAT_ID   = 68113
ELEMENT_SET_NO = 999
REV_AT_EPOCH   = 514
BSTAR          = -.27424504E-1
MEAN_MOTION_DOT = -.1864947E-1
MEAN_MOTION_DDOT = 0

CCSDS_OMM_VERS = 2.0
CREATION_DATE  = 
ORIGINATOR     = 

OBJECT_NAME    = STARLINK-36229
OBJECT_ID      = 2026-044P
CENTER_NAME    = EARTH
REF_FRAME      = TEME
TIME_SYSTEM    = UTC
MEAN_ELEMENT_THEORY = SGP/SGP4

EPOCH          = 2026-04-02T06:00:02.999808
MEAN_MOTION    = 15.58482360
ECCENTRICITY   = .000183
INCLINATION    = 97.2852
RA_OF_ASC_NODE = 53.5165
ARG_OF_PERICENTER = 94.5932
MEAN_ANOMALY   = 21.2166

EPHEMERIS_TYPE = 0
CLASSIFICATION_TYPE = U
NORAD_CAT_ID   = 68114
ELEMENT_SET_NO = 999
REV_AT_EPOCH   = 519
BSTAR          = -.27640429E-1
MEAN_MOTION_DOT = -.1866134E-1
MEAN_MOTION_DDOT = 0

CCSDS_OMM_VERS = 2.0
CREATION_DATE  = 
ORIGINATOR     = 

OBJECT_NAME    = STARLINK-36392
OBJECT_ID      = 2026-044Q
CENTER_NAME    = EARTH
REF_FRAME      = TEME
TIME_SYSTEM    = UTC
MEAN_ELEMENT_THEORY = SGP/SGP4

EPOCH          = 2026-04-02T06:00:02.999808
MEAN_MOTION    = 15.55940011
ECCENTRICITY   = .00017893
INCLINATION    = 97.2853
RA_OF_ASC_NODE = 53.5040
ARG_OF_PERICENTER = 94.1279
MEAN_ANOMALY   = 350.7779

EPHEMERIS_TYPE = 0
CLASSIFICATION_TYPE = U
NORAD_CAT_ID   = 68115
ELEMENT_SET_NO = 999
REV_AT_EPOCH   = 519
BSTAR          = -.3028242E-1
MEAN_MOTION_DOT = -.1859343E-1
MEAN_MOTION_DDOT = 0

CCSDS_OMM_VERS = 2.0
CREATION_DATE  = 
ORIGINATOR     = 

OBJECT_NAME    = STARLINK-36805
OBJECT_ID      = 2026-044R
CENTER_NAME    = EARTH
REF_FRAME      = TEME
TIME_SYSTEM    = UTC
MEAN_ELEMENT_THEORY = SGP/SGP4

EPOCH          = 2026-04-02T06:00:02.999808
MEAN_MOTION    = 15.57307950
ECCENTRICITY   = .00017616
INCLINATION    = 97.2854
RA_OF_ASC_NODE = 53.5147
ARG_OF_PERICENTER = 97.9080
MEAN_ANOMALY   = 10.4953

EPHEMERIS_TYPE = 0
CLASSIFICATION_TYPE = U
NORAD_CAT_ID   = 68116
ELEMENT_SET_NO = 999
REV_AT_EPOCH   = 519
BSTAR          = -.29126769E-1
MEAN_MOTION_DOT = -.1879495E-1
MEAN_MOTION_DDOT = 0

CCSDS_OMM_VERS = 2.0
CREATION_DATE  = 
ORIGINATOR     = 

OBJECT_NAME    = STARLINK-36844
OBJECT_ID      = 2026-044S
CENTER_NAME    = EARTH
REF_FRAME      = TEME
TIME_SYSTEM    = UTC
MEAN_ELEMENT_THEORY = SGP/SGP4

EPOCH          = 2026-04-02T06:00:02.999808
MEAN_MOTION    = 15.59368133
ECCENTRICITY   = .00018983
INCLINATION    = 97.2851
RA_OF_ASC_NODE = 53.5298
ARG_OF_PERICENTER = 102.6036
MEAN_ANOMALY   = 43.4882

EPHEMERIS_TYPE = 0
CLASSIFICATION_TYPE = U
NORAD_CAT_ID   = 68117
ELEMENT_SET_NO = 999
REV_AT_EPOCH   = 514
BSTAR          = -.26762332E-1
MEAN_MOTION_DOT = -.1868495E-1
MEAN_MOTION_DDOT = 0

CCSDS_OMM_VERS = 2.0
CREATION_DATE  = 
ORIGINATOR     = 

OBJECT_NAME    = STARLINK-36789
OBJECT_ID      = 2026-044T
CENTER_NAME    = EARTH
REF_FRAME      = TEME
TIME_SYSTEM    = UTC
MEAN_ELEMENT_THEORY = SGP/SGP4

EPOCH          = 2026-04-02T06:00:02.999808
MEAN_MOTION    = 15.60201035
ECCENTRICITY   = .00019977
INCLINATION    = 97.2855
RA_OF_ASC_NODE = 53.5353
ARG_OF_PERICENTER = 99.5577
MEAN_ANOMALY   = 59.4653

EPHEMERIS_TYPE = 0
CLASSIFICATION_TYPE = U
NORAD_CAT_ID   = 68118
ELEMENT_SET_NO = 999
REV_AT_EPOCH   = 514
BSTAR          = -.25904375E-1
MEAN_MOTION_DOT = -.1867413E-1
MEAN_MOTION_DDOT = 0

